[{"OBJECT_NAME":"STARLINK-5840","OBJECT_ID":"2023-094P","EPOCH":"2026-03-09T22:00:01.999584","MEAN_MOTION":15.11885564,"ECCENTRICITY":0.00012482,"INCLINATION":43.0005,"RA_OF_ASC_NODE":28.3812,"ARG_OF_PERICENTER":257.3238,"MEAN_ANOMALY":59.0319,"EPHEMERIS_TYPE":0,"CLASSIFICATION_TYPE":"U","NORAD_CAT_ID":57231,"ELEMENT_SET_NO":999,"REV_AT_EPOCH":567,"BSTAR":0.002870067,"MEAN_MOTION_DOT":0.00050118,"MEAN_MOTION_DDOT":0},{"OBJECT_NAME":"GEESAT-4 04","OBJECT_ID":"2025-170D","EPOCH":"2026-03-09T23:17:55.914720","MEAN_MOTION":15.1505395,"ECCENTRICITY":0.00176751,"INCLINATION":49.9794,"RA_OF_ASC_NODE":229.0049,"ARG_OF_PERICENTER":290.2477,"MEAN_ANOMALY":69.6574,"EPHEMERIS_TYPE":0,"CLASSIFICATION_TYPE":"U","NORAD_CAT_ID":65122,"ELEMENT_SET_NO":999,"REV_AT_EPOCH":3230,"BSTAR":0.00059156623,"MEAN_MOTION_DOT":0.00010965,"MEAN_MOTION_DDOT":0}]
